$$SOE
2459580.500000000, A.D. 2022-Jan-01 00:00:00.0000, -1.289408457383525E+08, -2.530377138287403E+08, -8.659269013207448E+07,
2459587.500000000, A.D. 2022-Jan-08 00:00:00.0000, -1.176075873875671E+08, -2.586560298893965E+08, -8.773308508713631E+07,
2459594.500000000, A.D. 2022-Jan-15 00:00:00.0000, -1.060572493247302E+08, -2.637969379625834E+08, -8.871154303325468E+07,
2459601.500000000, A.D. 2022-Jan-22 00:00:00.0000, -9.431205445447262E+07, -2.684532117025173E+08, -8.952701874754852E+07,
2459608.500000000, A.D. 2022-Jan-29 00:00:00.0000, -8.239436294965729E+07, -2.726185387581382E+08, -9.017876241193677E+07,
2459615.500000000, A.D. 2022-Feb-05 00:00:00.0000, -7.032663553664480E+07, -2.762875147345293E+08, -9.066631521192221E+07,
2459622.500000000, A.D. 2022-Feb-12 00:00:00.0000, -5.813139596983605E+07, -2.794556370210241E+08, -9.098950491747221E+07,
2459629.500000000, A.D. 2022-Feb-19 00:00:00.0000, -4.583119401733316E+07, -2.821192962434499E+08, -9.114844117138699E+07,
2459636.500000000, A.D. 2022-Feb-26 00:00:00.0000, -3.344857025675156E+07, -2.842757661812287E+08, -9.114351046067347E+07,
2459643.500000000, A.D. 2022-Mar-05 00:00:00.0000, -2.100602250116167E+07, -2.859231928763664E+08, -9.097537086950979E+07,
2459650.500000000, A.D. 2022-Mar-12 00:00:00.0000, -8.525973605301233E+06, -2.870605831020172E+08, -9.064494666962570E+07,
2459657.500000000, A.D. 2022-Mar-19 00:00:00.0000, 3.969259455371393E+06, -2.876877922561627E+08, -9.015342277929731E+07,
2459664.500000000, A.D. 2022-Mar-26 00:00:00.0000, 1.645749529985222E+07, -2.878055117746162E+08, -8.950223911984150E+07,
2459671.500000000, A.D. 2022-Apr-02 00:00:00.0000, 2.891671676758453E+07, -2.874152562047246E+08, -8.869308490742889E+07,
2459678.500000000, A.D. 2022-Apr-09 00:00:00.0000, 4.132509877663555E+07, -2.865193500156265E+08, -8.772789293019575E+07,
2459685.500000000, A.D. 2022-Apr-16 00:00:00.0000, 5.366103582084920E+07, -2.851209135640800E+08, -8.660883381144735E+07,
2459692.500000000, A.D. 2022-Apr-23 00:00:00.0000, 6.590316788638556E+07, -2.832238471950870E+08, -8.533831006997758E+07,
2459699.500000000, A.D. 2022-Apr-30 00:00:00.0000, 7.803040296642625E+07, -2.808328157721715E+08, -8.391894999772696E+07,
2459706.500000000, A.D. 2022-May-07 00:00:00.0000, 9.002193929035512E+07, -2.779532356466402E+08, -8.235360179885386E+07,
2459713.500000000, A.D. 2022-May-14 00:00:00.0000, 1.018572887191979E+08, -2.745912610561390E+08, -8.064532787070577E+07,
2459720.500000000, A.D. 2022-May-21 00:00:00.0000, 1.135162993466697E+08, -2.707537692199281E+08, -7.879739898447043E+07,
2459727.500000000, A.D. 2022-May-28 00:00:00.0000, 1.249791768993565E+08, -2.664483451187062E+08, -7.681328841262713E+07,
2459734.500000000, A.D. 2022-Jun-04 00:00:00.0000, 1.362265052787665E+08, -2.616832663038675E+08, -7.469666606845681E+07,
2459741.500000000, A.D. 2022-Jun-11 00:00:00.0000, 1.472392664460928E+08, -2.564674877614889E+08, -7.245139267925106E+07,
2459748.500000000, A.D. 2022-Jun-18 00:00:00.0000, 1.579988597385076E+08, -2.508106268335719E+08, -7.008151399593870E+07,
2459755.500000000, A.D. 2022-Jun-25 00:00:00.0000, 1.684871206956679E+08, -2.447229482315750E+08, -6.759125503889838E+07,
2459762.500000000, A.D. 2022-Jul-02 00:00:00.0000, 1.786863395840430E+08, -2.382153492003618E+08, -6.498501439095674E+07,
2459769.500000000, A.D. 2022-Jul-09 00:00:00.0000, 1.885792800669481E+08, -2.312993446480646E+08, -6.226735855448051E+07,
2459776.500000000, A.D. 2022-Jul-16 00:00:00.0000, 1.981491980194215E+08, -2.239870511541412E+08, -5.944301627484505E+07,
2459783.500000000, A.D. 2022-Jul-23 00:00:00.0000, 2.073798583358218E+08, -2.162911697683958E+08, -5.651687261493273E+07,
2459790.500000000, A.D. 2022-Jul-30 00:00:00.0000, 2.162555498537792E+08, -2.082249709350505E+08, -5.349396305140565E+07,
2459797.500000000, A.D. 2022-Aug-06 00:00:00.0000, 2.247611020308034E+08, -1.998022808677180E+08, -5.037946785713453E+07,
2459804.500000000, A.D. 2022-Aug-13 00:00:00.0000, 2.328819025854491E+08, -1.910374665940112E+08, -4.717870645524386E+07,
2459811.500000000, A.D. 2022-Aug-20 00:00:00.0000, 2.406039145625332E+08, -1.819454201408851E+08, -4.389713162578455E+07,
2459818.500000000, A.D. 2022-Aug-27 00:00:00.0000, 2.479136929153104E+08, -1.725415425457437E+08, -4.054032361382072E+07,
2459825.500000000, A.D. 2022-Sep-03 00:00:00.0000, 2.547984008775702E+08, -1.628417277558977E+08, -3.711398415616360E+07,
2459832.500000000, A.D. 2022-Sep-10 00:00:00.0000, 2.612458262426935E+08, -1.528623463439229E+08, -3.362393042208260E+07,
2459839.500000000, A.D. 2022-Sep-17 00:00:00.0000, 2.672443976050486E+08, -1.426202289963565E+08, -3.007608886181520E+07,
2459846.500000000, A.D. 2022-Sep-24 00:00:00.0000, 2.727832006423424E+08, -1.321326497864238E+08, -2.647648896232961E+07,
2459853.500000000, A.D. 2022-Oct-01 00:00:00.0000, 2.778519946844490E+08, -1.214173092095842E+08, -2.283125692061514E+07,
2459860.500000000, A.D. 2022-Oct-08 00:00:00.0000, 2.824412299769580E+08, -1.104923164079337E+08, -1.914660921304788E+07,
2459867.500000000, A.D. 2022-Oct-15 00:00:00.0000, 2.865420647123689E+08, -9.937616933414872E+07, -1.542884586008306E+07,
2459874.500000000, A.D. 2022-Oct-22 00:00:00.0000, 2.901463796421888E+08, -8.808773449357313E+07, -1.168434330539939E+07,
2459881.500000000, A.D. 2022-Oct-29 00:00:00.0000, 2.932467927444822E+08, -7.664622880346002E+07, -7.919547331772491E+06,
2459888.500000000, A.D. 2022-Nov-05 00:00:00.0000, 2.958366760190060E+08, -6.507120076535895E+07, -4.140965964454476E+06,
2459895.500000000, A.D. 2022-Nov-12 00:00:00.0000, 2.979101724192697E+08, -5.338250962260929E+07, -3.551620616087578E+05,
2459902.500000000, A.D. 2022-Nov-19 00:00:00.0000, 2.994622121710864E+08, -4.160030339896597E+07, 3.431254412199335E+06,
2459909.500000000, A.D. 2022-Nov-26 00:00:00.0000, 3.004885287011575E+08, -2.974499615825303E+07, 7.211634388263794E+06,
2459916.500000000, A.D. 2022-Dec-03 00:00:00.0000, 3.009856742959850E+08, -1.783724443975231E+07, 1.097929797013043E+07,
2459923.500000000, A.D. 2022-Dec-10 00:00:00.0000, 3.009510354843865E+08, -5.897922794945784E+06, 1.472754299516824E+07,
2459930.500000000, A.D. 2022-Dec-17 00:00:00.0000, 3.003828481101886E+08, 6.051901603222235E+06, 1.844965388986647E+07,
2459937.500000000, A.D. 2022-Dec-24 00:00:00.0000, 2.992802121405089E+08, 1.799099526271056E+07, 2.213891081534025E+07,
2459944.500000000, A.D. 2022-Dec-31 00:00:00.0000, 2.976431064925490E+08, 2.989798573787650E+07, 2.578859908870702E+07,
2459951.500000000, A.D. 2023-Jan-07 00:00:00.0000, 2.954724039115763E+08, 4.175139106547561E+07, 2.939201895441438E+07,
2459958.500000000, A.D. 2023-Jan-14 00:00:00.0000, 2.927698838476729E+08, 5.352965181848249E+07, 3.294249593516197E+07,
2459965.500000000, A.D. 2023-Jan-21 00:00:00.0000, 2.895382426106164E+08, 6.521116263902978E+07, 3.643339157282779E+07,
2459972.500000000, A.D. 2023-Jan-28 00:00:00.0000, 2.857811043719804E+08, 7.677430307165617E+07, 3.985811421183795E+07,
2459979.500000000, A.D. 2023-Feb-04 00:00:00.0000, 2.815030326886138E+08, 8.819747073774895E+07, 4.321013009137858E+07,
2459986.500000000, A.D. 2023-Feb-11 00:00:00.0000, 2.767095406268925E+08, 9.945911666285340E+07, 4.648297488963859E+07,
2459993.500000000, A.D. 2023-Feb-18 00:00:00.0000, 2.714070992864136E+08, 1.105377819347701E+08, 4.967026564522610E+07,
2460000.500000000, A.D. 2023-Feb-25 00:00:00.0000, 2.656031448424774E+08, 1.214121355360833E+08, 5.276571300202233E+07,
2460007.500000000, A.D. 2023-Mar-04 00:00:00.0000, 2.593060840739920E+08, 1.320610133754336E+08, 5.576313375763708E+07,
2460014.500000000, A.D. 2023-Mar-11 00:00:00.0000, 2.525252982788769E+08, 1.424634585091373E+08, 5.865646370578410E+07,
2460021.500000000, A.D. 2023-Mar-18 00:00:00.0000, 2.452711454956582E+08, 1.525987624724513E+08, 6.143977075533450E+07,
2460028.500000000, A.D. 2023-Mar-25 00:00:00.0000, 2.375549610970613E+08, 1.624465076235645E+08, 6.410726828769176E+07,
2460035.500000000, A.D. 2023-Apr-01 00:00:00.0000, 2.293890570354285E+08, 1.719866108285108E+08, 6.665332872161698E+07,
2460042.500000000, A.D. 2023-Apr-08 00:00:00.0000, 2.207867189676084E+08, 1.811993696281091E+08, 6.907249740633002E+07,
2460049.500000000, A.D. 2023-Apr-15 00:00:00.0000, 2.117621987536957E+08, 1.900655096952835E+08, 7.135950692642242E+07,
2460056.500000000, A.D. 2023-Apr-22 00:00:00.0000, 2.023307039941990E+08, 1.985662304444984E+08, 7.350929137034051E+07,
2460063.500000000, A.D. 2023-Apr-29 00:00:00.0000, 1.925083872036962E+08, 2.066832509269139E+08, 7.551700045287830E+07,
2460070.500000000, A.D. 2023-May-06 00:00:00.0000, 1.823123327122108E+08, 2.143988576545098E+08, 7.737801374522805E+07,
2460077.500000000, A.D. 2023-May-13 00:00:00.0000, 1.717605401769677E+08, 2.216959533121893E+08, 7.908795497412334E+07,
2460084.500000000, A.D. 2023-May-20 00:00:00.0000, 1.608719048100266E+08, 2.285581057032973E+08, 8.064270626999345E+07,
2460091.500000000, A.D. 2023-May-27 00:00:00.0000, 1.496661943970465E+08, 2.349695967181070E+08, 8.203842228055245E+07,
2460098.500000000, A.D. 2023-Jun-03 00:00:00.0000, 1.381640230581500E+08, 2.409154711533192E+08, 8.327154407840891E+07,
2460105.500000000, A.D. 2023-Jun-10 00:00:00.0000, 1.263868216816894E+08, 2.463815851546194E+08, 8.433881278665176E+07,
2460112.500000000, A.D. 2023-Jun-17 00:00:00.0000, 1.143568050425535E+08, 2.513546539927084E+08, 8.523728283262354E+07,
2460119.500000000, A.D. 2023-Jun-24 00:00:00.0000, 1.020969358653551E+08, 2.558222989859595E+08, 8.596433472563855E+07,
2460126.500000000, A.D. 2023-Jul-01 00:00:00.0000, 8.963088604914044E+07, 2.597730941455371E+08, 8.651768732297809E+07,
2460133.500000000, A.D. 2023-Jul-08 00:00:00.0000, 7.698299337176692E+07, 2.631966130942887E+08, 8.689540971887219E+07,
2460140.500000000, A.D. 2023-Jul-15 00:00:00.0000, 6.417821239914265E+07, 2.660834731349806E+08, 8.709593254511635E+07,
2460147.500000000, A.D. 2023-Jul-22 00:00:00.0000, 5.124206314194763E+07, 2.684253751546208E+08, 8.711805819145606E+07,
$$EOE